{
  "type": "FeatureCollection",
  "features": [
    {
      "type": "Feature",
      "properties": {
        "norad_id": 33844,
        "name": "COSMOS 2251 DEB",
        "group": "cosmos-2251-debris",
        "lat": 6.842273703504774,
        "lon": -133.61730421052496,
        "alt_km": 788.5334595269869,
        "timestamp": "2025-12-15T04:01:20.844786+00:00",
        "meta_object_name": "COSMOS 2251 DEB",
        "meta_object_id": "1993-036CM",
        "meta_epoch": "2025-12-14T07:29:21.017184",
        "meta_mean_motion": 14.33720024,
        "meta_eccentricity": 0.00470485,
        "meta_inclination": 74.067,
        "meta_ra_of_asc_node": 49.9083,
        "meta_arg_of_pericenter": 71.3419,
        "meta_mean_anomaly": 6.828,
        "meta_ephemeris_type": 0,
        "meta_classification_type": "U",
        "meta_norad_cat_id": 33844,
        "meta_element_set_no": 999,
        "meta_rev_at_epoch": 87748,
        "meta_bstar": 0.00046630878,
        "meta_mean_motion_dot": 1.285e-05,
        "meta_mean_motion_ddot": 0,
        "tle_line1": "1 33844U 93036CM  25348.31204881  .00001285  00000+0  46631-3 0  9990",
        "tle_line2": "2 33844  74.0670  49.9083 0047048  71.3419   6.8280 14.33720024877483"
      },
      "geometry": {
        "type": "Point",
        "coordinates": [
          -133.61730421052496,
          6.842273703504774
        ]
      }
    },
    {
      "type": "Feature",
      "properties": {
        "norad_id": 33848,
        "name": "COSMOS 2251 DEB",
        "group": "cosmos-2251-debris",
        "lat": 72.24844124133463,
        "lon": 56.55611950708827,
        "alt_km": 713.340320634672,
        "timestamp": "2025-12-15T04:01:20.844796+00:00",
        "meta_object_name": "COSMOS 2251 DEB",
        "meta_object_id": "1993-036CR",
        "meta_epoch": "2025-12-14T07:46:00.037056",
        "meta_mean_motion": 14.44075713,
        "meta_eccentricity": 0.00411963,
        "meta_inclination": 74.0323,
        "meta_ra_of_asc_node": 354.6961,
        "meta_arg_of_pericenter": 50.0556,
        "meta_mean_anomaly": 325.9927,
        "meta_ephemeris_type": 0,
        "meta_classification_type": "U",
        "meta_norad_cat_id": 33848,
        "meta_element_set_no": 999,
        "meta_rev_at_epoch": 87854,
        "meta_bstar": 0.0011769751,
        "meta_mean_motion_dot": 4.047e-05,
        "meta_mean_motion_ddot": 0,
        "tle_line1": "1 33848U 93036CR  25348.32361154  .00004047  00000+0  11770-2 0  9996",
        "tle_line2": "2 33848  74.0323 354.6961 0041196  50.0556 325.9927 14.44075713878548"
      },
      "geometry": {
        "type": "Point",
        "coordinates": [
          56.55611950708827,
          72.24844124133463
        ]
      }
    },
    {
      "type": "Feature",
      "properties": {
        "norad_id": 33892,
        "name": "COSMOS 2251 DEB",
        "group": "cosmos-2251-debris",
        "lat": -6.260444963405285,
        "lon": -80.54387649685546,
        "alt_km": 773.762792192555,
        "timestamp": "2025-12-15T04:01:20.844806+00:00",
        "meta_object_name": "COSMOS 2251 DEB",
        "meta_object_id": "1993-036CV",
        "meta_epoch": "2025-12-14T07:03:11.588832",
        "meta_mean_motion": 14.23346742,
        "meta_eccentricity": 0.01127528,
        "meta_inclination": 73.8028,
        "meta_ra_of_asc_node": 99.2222,
        "meta_arg_of_pericenter": 130.1612,
        "meta_mean_anomaly": 259.9213,
        "meta_ephemeris_type": 0,
        "meta_classification_type": "U",
        "meta_norad_cat_id": 33892,
        "meta_element_set_no": 999,
        "meta_rev_at_epoch": 86977,
        "meta_bstar": 0.00099134277,
        "meta_mean_motion_dot": 2.374e-05,
        "meta_mean_motion_ddot": 0,
        "tle_line1": "1 33892U 93036CV  25348.29388413  .00002374  00000+0  99134-3 0  9990",
        "tle_line2": "2 33892  73.8028  99.2222 0112752 130.1612 259.9213 14.23346742869777"
      },
      "geometry": {
        "type": "Point",
        "coordinates": [
          -80.54387649685546,
          -6.260444963405285
        ]
      }
    },
    {
      "type": "Feature",
      "properties": {
        "norad_id": 33894,
        "name": "COSMOS 2251 DEB",
        "group": "cosmos-2251-debris",
        "lat": -65.96799823732788,
        "lon": -55.468218372916816,
        "alt_km": 781.3159998332976,
        "timestamp": "2025-12-15T04:01:20.844816+00:00",
        "meta_object_name": "COSMOS 2251 DEB",
        "meta_object_id": "1993-036CX",
        "meta_epoch": "2025-12-14T01:06:37.696032",
        "meta_mean_motion": 13.21309265,
        "meta_eccentricity": 0.05794898,
        "meta_inclination": 73.7675,
        "meta_ra_of_asc_node": 347.0578,
        "meta_arg_of_pericenter": 266.2987,
        "meta_mean_anomaly": 87.1696,
        "meta_ephemeris_type": 0,
        "meta_classification_type": "U",
        "meta_norad_cat_id": 33894,
        "meta_element_set_no": 999,
        "meta_rev_at_epoch": 80725,
        "meta_bstar": 0.0017935789,
        "meta_mean_motion_dot": 1.764e-05,
        "meta_mean_motion_ddot": 0,
        "tle_line1": "1 33894U 93036CX  25348.04626963  .00001764  00000+0  17936-2 0  9991",
        "tle_line2": "2 33894  73.7675 347.0578 0579489 266.2987  87.1696 13.21309265807251"
      },
      "geometry": {
        "type": "Point",
        "coordinates": [
          -55.468218372916816,
          -65.96799823732788
        ]
      }
    },
    {
      "type": "Feature",
      "properties": {
        "norad_id": 33896,
        "name": "COSMOS 2251 DEB",
        "group": "cosmos-2251-debris",
        "lat": -33.983349434645056,
        "lon": -16.397748409754428,
        "alt_km": 867.6691703581901,
        "timestamp": "2025-12-15T04:01:20.844827+00:00",
        "meta_object_name": "COSMOS 2251 DEB",
        "meta_object_id": "1993-036CZ",
        "meta_epoch": "2025-12-14T05:50:00.096288",
        "meta_mean_motion": 14.19043542,
        "meta_eccentricity": 0.01265328,
        "meta_inclination": 73.7659,
        "meta_ra_of_asc_node": 153.9537,
        "meta_arg_of_pericenter": 329.4184,
        "meta_mean_anomaly": 206.1695,
        "meta_ephemeris_type": 0,
        "meta_classification_type": "U",
        "meta_norad_cat_id": 33896,
        "meta_element_set_no": 999,
        "meta_rev_at_epoch": 86761,
        "meta_bstar": 0.00079995015,
        "meta_mean_motion_dot": 1.782e-05,
        "meta_mean_motion_ddot": 0,
        "tle_line1": "1 33896U 93036CZ  25348.24305667  .00001782  00000+0  79995-3 0  9994",
        "tle_line2": "2 33896  73.7659 153.9537 0126532 329.4184 206.1695 14.19043542867611"
      },
      "geometry": {
        "type": "Point",
        "coordinates": [
          -16.397748409754428,
          -33.983349434645056
        ]
      }
    },
    {
      "type": "Feature",
      "properties": {
        "norad_id": 33899,
        "name": "COSMOS 2251 DEB",
        "group": "cosmos-2251-debris",
        "lat": -60.82327367770456,
        "lon": -68.10849096920026,
        "alt_km": 704.1947356939309,
        "timestamp": "2025-12-15T04:01:20.844837+00:00",
        "meta_object_name": "COSMOS 2251 DEB",
        "meta_object_id": "1993-036DC",
        "meta_epoch": "2025-12-14T07:28:53.550624",
        "meta_mean_motion": 14.61211123,
        "meta_eccentricity": 0.00566606,
        "meta_inclination": 74.0537,
        "meta_ra_of_asc_node": 82.7228,
        "meta_arg_of_pericenter": 144.983,
        "meta_mean_anomaly": 279.2233,
        "meta_ephemeris_type": 0,
        "meta_classification_type": "U",
        "meta_norad_cat_id": 33899,
        "meta_element_set_no": 999,
        "meta_rev_at_epoch": 88862,
        "meta_bstar": 0.0010415068,
        "meta_mean_motion_dot": 5.224e-05,
        "meta_mean_motion_ddot": 0,
        "tle_line1": "1 33899U 93036DC  25348.31173091  .00005224  00000+0  10415-2 0  9995",
        "tle_line2": "2 33899  74.0537  82.7228 0056660 144.9830 279.2233 14.61211123888623"
      },
      "geometry": {
        "type": "Point",
        "coordinates": [
          -68.10849096920026,
          -60.82327367770456
        ]
      }
    },
    {
      "type": "Feature",
      "properties": {
        "norad_id": 33900,
        "name": "COSMOS 2251 DEB",
        "group": "cosmos-2251-debris",
        "lat": -68.60545517283296,
        "lon": -137.75528493783787,
        "alt_km": 715.9409558857215,
        "timestamp": "2025-12-15T04:01:20.844847+00:00",
        "meta_object_name": "COSMOS 2251 DEB",
        "meta_object_id": "1993-036DD",
        "meta_epoch": "2025-12-14T07:10:49.418976",
        "meta_mean_motion": 14.5835453,
        "meta_eccentricity": 0.00467478,
        "meta_inclination": 74.0196,
        "meta_ra_of_asc_node": 356.892,
        "meta_arg_of_pericenter": 148.5857,
        "meta_mean_anomaly": 229.0672,
        "meta_ephemeris_type": 0,
        "meta_classification_type": "U",
        "meta_norad_cat_id": 33900,
        "meta_element_set_no": 999,
        "meta_rev_at_epoch": 89059,
        "meta_bstar": 0.00047375313,
        "meta_mean_motion_dot": 2.197e-05,
        "meta_mean_motion_ddot": 0,
        "tle_line1": "1 33900U 93036DD  25348.29918309  .00002197  00000+0  47375-3 0  9996",
        "tle_line2": "2 33900  74.0196 356.8920 0046747 148.5857 229.0672 14.58354530890590"
      },
      "geometry": {
        "type": "Point",
        "coordinates": [
          -137.75528493783787,
          -68.60545517283296
        ]
      }
    }
  ]
}